[
    {
        "OBJECT_NAME": "NAVSTAR 29 (USA 87)",
        "OBJECT_ID": "1992-089A",
        "EPOCH": "2026-07-20T11:43:51.343680",
        "MEAN_MOTION": 1.8824668,
        "ECCENTRICITY": 0.00753876,
        "INCLINATION": 55.0361,
        "RA_OF_ASC_NODE": 127.2785,
        "ARG_OF_PERICENTER": 80.0994,
        "MEAN_ANOMALY": 103.4724,
        "EPHEMERIS_TYPE": 0,
        "CLASSIFICATION_TYPE": "U",
        "NORAD_CAT_ID": 22275,
        "ELEMENT_SET_NO": 999,
        "REV_AT_EPOCH": 23750,
        "BSTAR": 0,
        "MEAN_MOTION_DOT": -4e-08,
        "MEAN_MOTION_DDOT": 0
    },
    {
        "OBJECT_NAME": "NAVSTAR 30 (USA 88)",
        "OBJECT_ID": "1993-007A",
        "EPOCH": "2026-07-22T14:28:06.096576",
        "MEAN_MOTION": 1.88095075,
        "ECCENTRICITY": 0.00268766,
        "INCLINATION": 53.2498,
        "RA_OF_ASC_NODE": 241.7625,
        "ARG_OF_PERICENTER": 43.7679,
        "MEAN_ANOMALY": 288.0004,
        "EPHEMERIS_TYPE": 0,
        "CLASSIFICATION_TYPE": "U",
        "NORAD_CAT_ID": 22446,
        "ELEMENT_SET_NO": 999,
        "REV_AT_EPOCH": 23466,
        "BSTAR": 0,
        "MEAN_MOTION_DOT": 4.3e-07,
        "MEAN_MOTION_DDOT": 0
    },
    {
        "OBJECT_NAME": "NAVSTAR 31 (USA 90)",
        "OBJECT_ID": "1993-017A",
        "EPOCH": "2026-07-20T05:55:19.915392",
        "MEAN_MOTION": 1.88946964,
        "ECCENTRICITY": 0.00029851,
        "INCLINATION": 54.1059,
        "RA_OF_ASC_NODE": 296.9472,
        "ARG_OF_PERICENTER": 116.233,
        "MEAN_ANOMALY": 252.3461,
        "EPHEMERIS_TYPE": 0,
        "CLASSIFICATION_TYPE": "U",
        "NORAD_CAT_ID": 22581,
        "ELEMENT_SET_NO": 999,
        "REV_AT_EPOCH": 8981,
        "BSTAR": 0,
        "MEAN_MOTION_DOT": -9.3e-07,
        "MEAN_MOTION_DDOT": 0
    },
    {
        "OBJECT_NAME": "NAVSTAR 32 (USA 91)",
        "OBJECT_ID": "1993-032A",
        "EPOCH": "2026-07-21T02:34:05.449728",
        "MEAN_MOTION": 1.87696106,
        "ECCENTRICITY": 0.00383875,
        "INCLINATION": 53.4829,
        "RA_OF_ASC_NODE": 279.3998,
        "ARG_OF_PERICENTER": 94.3467,
        "MEAN_ANOMALY": 268.1324,
        "EPHEMERIS_TYPE": 0,
        "CLASSIFICATION_TYPE": "U",
        "NORAD_CAT_ID": 22657,
        "ELEMENT_SET_NO": 999,
        "REV_AT_EPOCH": 23454,
        "BSTAR": 0,
        "MEAN_MOTION_DOT": -6.4e-07,
        "MEAN_MOTION_DDOT": 0
    },
    {
        "OBJECT_NAME": "NAVSTAR 33 (USA 92)",
        "OBJECT_ID": "1993-042A",
        "EPOCH": "2026-07-21T06:04:05.426976",
        "MEAN_MOTION": 1.89431935,
        "ECCENTRICITY": 0.00124243,
        "INCLINATION": 54.715,
        "RA_OF_ASC_NODE": 167.7817,
        "ARG_OF_PERICENTER": 32.678,
        "MEAN_ANOMALY": 150.1227,
        "EPHEMERIS_TYPE": 0,
        "CLASSIFICATION_TYPE": "U",
        "NORAD_CAT_ID": 22700,
        "ELEMENT_SET_NO": 999,
        "REV_AT_EPOCH": 23777,
        "BSTAR": 0,
        "MEAN_MOTION_DOT": 6.2e-07,
        "MEAN_MOTION_DDOT": 0
    },
    {
        "OBJECT_NAME": "NAVSTAR 34 (USA 94)",
        "OBJECT_ID": "1993-054A",
        "EPOCH": "2026-07-19T12:45:56.801952",
        "MEAN_MOTION": 1.89129848,
        "ECCENTRICITY": 0.0052312,
        "INCLINATION": 53.2914,
        "RA_OF_ASC_NODE": 216.6117,
        "ARG_OF_PERICENTER": 254.1525,
        "MEAN_ANOMALY": 288.1297,
        "EPHEMERIS_TYPE": 0,
        "CLASSIFICATION_TYPE": "U",
        "NORAD_CAT_ID": 22779,
        "ELEMENT_SET_NO": 999,
        "REV_AT_EPOCH": 23663,
        "BSTAR": 0,
        "MEAN_MOTION_DOT": 5e-07,
        "MEAN_MOTION_DDOT": 0
    },
    {
        "OBJECT_NAME": "NAVSTAR 35 (USA 96)",
        "OBJECT_ID": "1993-068A",
        "EPOCH": "2026-07-19T22:52:46.951680",
        "MEAN_MOTION": 1.88541177,
        "ECCENTRICITY": 0.00091738,
        "INCLINATION": 55.4173,
        "RA_OF_ASC_NODE": 336.1611,
        "ARG_OF_PERICENTER": 139.2644,
        "MEAN_ANOMALY": 43.7125,
        "EPHEMERIS_TYPE": 0,
        "CLASSIFICATION_TYPE": "U",
        "NORAD_CAT_ID": 22877,
        "ELEMENT_SET_NO": 999,
        "REV_AT_EPOCH": 23707,
        "BSTAR": 0,
        "MEAN_MOTION_DOT": -1.15e-06,
        "MEAN_MOTION_DDOT": 0
    },
    {
        "OBJECT_NAME": "NAVSTAR 36 (USA 100)",
        "OBJECT_ID": "1994-016A",
        "EPOCH": "2026-07-22T07:47:38.534784",
        "MEAN_MOTION": 1.86675148,
        "ECCENTRICITY": 0.0034897,
        "INCLINATION": 53.0761,
        "RA_OF_ASC_NODE": 272.7488,
        "ARG_OF_PERICENTER": 219.4468,
        "MEAN_ANOMALY": 138.2768,
        "EPHEMERIS_TYPE": 0,
        "CLASSIFICATION_TYPE": "U",
        "NORAD_CAT_ID": 23027,
        "ELEMENT_SET_NO": 999,
        "REV_AT_EPOCH": 23387,
        "BSTAR": 0,
        "MEAN_MOTION_DOT": -4e-07,
        "MEAN_MOTION_DDOT": 0
    },
    {
        "OBJECT_NAME": "NAVSTAR 37 (USA 117)",
        "OBJECT_ID": "1996-019A",
        "EPOCH": "2026-07-21T08:35:38.664096",
        "MEAN_MOTION": 1.94619889,
        "ECCENTRICITY": 0.00079844,
        "INCLINATION": 52.7862,
        "RA_OF_ASC_NODE": 263.8382,
        "ARG_OF_PERICENTER": 23.3596,
        "MEAN_ANOMALY": 334.9771,
        "EPHEMERIS_TYPE": 0,
        "CLASSIFICATION_TYPE": "U",
        "NORAD_CAT_ID": 23833,
        "ELEMENT_SET_NO": 999,
        "REV_AT_EPOCH": 8342,
        "BSTAR": 0,
        "MEAN_MOTION_DOT": -2.6e-07,
        "MEAN_MOTION_DDOT": 0
    },
    {
        "OBJECT_NAME": "NAVSTAR 38 (USA 126)",
        "OBJECT_ID": "1996-041A",
        "EPOCH": "2026-07-20T10:06:31.942656",
        "MEAN_MOTION": 1.8869559,
        "ECCENTRICITY": 0.00627787,
        "INCLINATION": 56.0492,
        "RA_OF_ASC_NODE": 45.4304,
        "ARG_OF_PERICENTER": 108.8754,
        "MEAN_ANOMALY": 66.9622,
        "EPHEMERIS_TYPE": 0,
        "CLASSIFICATION_TYPE": "U",
        "NORAD_CAT_ID": 23953,
        "ELEMENT_SET_NO": 999,
        "REV_AT_EPOCH": 21541,
        "BSTAR": 0,
        "MEAN_MOTION_DOT": -8.7e-07,
        "MEAN_MOTION_DDOT": 0
    },
    {
        "OBJECT_NAME": "NAVSTAR 39 (USA 128)",
        "OBJECT_ID": "1996-056A",
        "EPOCH": "2026-07-20T15:00:15.959808",
        "MEAN_MOTION": 1.86499078,
        "ECCENTRICITY": 0.0031365,
        "INCLINATION": 53.6993,
        "RA_OF_ASC_NODE": 235.6086,
        "ARG_OF_PERICENTER": 217.8321,
        "MEAN_ANOMALY": 311.586,
        "EPHEMERIS_TYPE": 0,
        "CLASSIFICATION_TYPE": "U",
        "NORAD_CAT_ID": 24320,
        "ELEMENT_SET_NO": 999,
        "REV_AT_EPOCH": 21113,
        "BSTAR": 0,
        "MEAN_MOTION_DOT": 3.3e-07,
        "MEAN_MOTION_DDOT": 0
    },
    {
        "OBJECT_NAME": "NAVSTAR 43 (USA 132)",
        "OBJECT_ID": "1997-035A",
        "EPOCH": "2026-07-22T02:27:19.469088",
        "MEAN_MOTION": 2.00564064,
        "ECCENTRICITY": 0.01040921,
        "INCLINATION": 56.0126,
        "RA_OF_ASC_NODE": 97.2098,
        "ARG_OF_PERICENTER": 57.6912,
        "MEAN_ANOMALY": 303.3519,
        "EPHEMERIS_TYPE": 0,
        "CLASSIFICATION_TYPE": "U",
        "NORAD_CAT_ID": 24876,
        "ELEMENT_SET_NO": 999,
        "REV_AT_EPOCH": 21265,
        "BSTAR": 0,
        "MEAN_MOTION_DOT": -6e-07,
        "MEAN_MOTION_DDOT": 0
    },
    {
        "OBJECT_NAME": "NAVSTAR 44 (USA 135)",
        "OBJECT_ID": "1997-067A",
        "EPOCH": "2026-07-19T12:50:20.523264",
        "MEAN_MOTION": 1.88437753,
        "ECCENTRICITY": 0.00216316,
        "INCLINATION": 55.6001,
        "RA_OF_ASC_NODE": 172.4495,
        "ARG_OF_PERICENTER": 262.3289,
        "MEAN_ANOMALY": 183.158,
        "EPHEMERIS_TYPE": 0,
        "CLASSIFICATION_TYPE": "U",
        "NORAD_CAT_ID": 25030,
        "ELEMENT_SET_NO": 999,
        "REV_AT_EPOCH": 20730,
        "BSTAR": 0,
        "MEAN_MOTION_DOT": 6.6e-07,
        "MEAN_MOTION_DDOT": 0
    }
]
