{"epoch":1784762836,"count":18316,"objects":[{"id":"22275","name":"NAVSTAR 29 (USA 87)","type":"PAYLOAD","l1":"1 22275U 92089A   26201.48878870 -.00000004  00000-0  00000-0 0  9992","l2":"2 22275  55.0361 127.2785 0075388  80.0994 103.4724  1.88246680237504"},{"id":"22446","name":"NAVSTAR 30 (USA 88)","type":"PAYLOAD","l1":"1 22446U 93007A   26203.60284834  .00000043  00000-0  00000-0 0  9992","l2":"2 22446  53.2498 241.7625 0026877  43.7679 288.0004  1.88095075234660"},{"id":"22581","name":"NAVSTAR 31 (USA 90)","type":"PAYLOAD","l1":"1 22581U 93017A   26201.24675828 -.00000093  00000-0  00000-0 0  9994","l2":"2 22581  54.1059 296.9472 0002985 116.2330 252.3461  1.88946964 89817"},{"id":"22657","name":"NAVSTAR 32 (USA 91)","type":"PAYLOAD","l1":"1 22657U 93032A   26202.10700752 -.00000064  00000-0  00000-0 0  9994","l2":"2 22657  53.4829 279.3998 0038387  94.3467 268.1324  1.87696106234542"},{"id":"22700","name":"NAVSTAR 33 (USA 92)","type":"PAYLOAD","l1":"1 22700U 93042A   26202.25284059  .00000062  00000-0  00000-0 0  9994","l2":"2 22700  54.7150 167.7817 0012424  32.6780 150.1227  1.89431935237778"},{"id":"22779","name":"NAVSTAR 34 (USA 94)","type":"PAYLOAD","l1":"1 22779U 93054A   26200.53190743  .00000050  00000-0  00000+0 0  9994","l2":"2 22779  53.2914 216.6117 0052312 254.1525 288.1297  1.89129848236631"},{"id":"22877","name":"NAVSTAR 35 (USA 96)","type":"PAYLOAD","l1":"1 22877U 93068A   26200.95332120 -.00000115  00000-0  00000-0 0  9995","l2":"2 22877  55.4173 336.1611 0009174 139.2644  43.7125  1.88541177237077"},{"id":"23027","name":"NAVSTAR 36 (USA 100)","type":"PAYLOAD","l1":"1 23027U 94016A   26203.32475156 -.00000040  00000-0  00000-0 0  9995","l2":"2 23027  53.0761 272.7488 0034897 219.4468 138.2768  1.86675148233875"},{"id":"23833","name":"NAVSTAR 37 (USA 117)","type":"PAYLOAD","l1":"1 23833U 96019A   26202.35808639 -.00000026  00000-0  00000-0 0  9997","l2":"2 23833  52.7862 263.8382 0007984  23.3596 334.9771  1.94619889 83425"},{"id":"23953","name":"NAVSTAR 38 (USA 126)","type":"PAYLOAD","l1":"1 23953U 96041A   26201.42120304 -.00000087  00000-0  00000-0 0  9995","l2":"2 23953  56.0492  45.4304 0062779 108.8754  66.9622  1.88695590215419"},{"id":"24320","name":"NAVSTAR 39 (USA 128)","type":"PAYLOAD","l1":"1 24320U 96056A   26201.62518472  .00000033  00000-0  00000-0 0  9999","l2":"2 24320  53.6993 235.6086 0031365 217.8321 311.5860  1.86499078211134"},{"id":"24876","name":"NAVSTAR 43 (USA 132)","type":"PAYLOAD","l1":"1 24876U 97035A   26203.10230867 -.00000060  00000-0  00000-0 0  9998","l2":"2 24876  56.0126  97.2098 0104092  57.6912 303.3519  2.00564064212657"},{"id":"25030","name":"NAVSTAR 44 (USA 135)","type":"PAYLOAD","l1":"1 25030U 97067A   26200.53495976  .00000066  00000-0  00000-0 0  9999","l2":"2 25030  55.6001 172.4495 0021632 262.3289 183.1580  1.88437753207301"}]}